NORAD_CAT_ID,OBJECT_NAME,OBJECT_TYPE,EPOCH,MEAN_MOTION,ECCENTRICITY,INCLINATION,RA_OF_ASC_NODE,ARG_OF_PERICENTER,MEAN_ANOMALY,BSTAR,MEAN_MOTION_DOT,MEAN_MOTION_DDOT,TLE_LINE0,TLE_LINE1,TLE_LINE2,SEMIMAJOR_AXIS,PERIOD,APOGEE,PERIGEE,DECAYED
52095.0,STARLINK-3701,PAYLOAD,2024-05-30 07:23:41,15.08882274,0.0001249,53.2167,119.8201,93.8942,266.2193,0.00096998,0.00015201,0.0,0 STARLINK-3701,1 52095U 22029H   24151.30811546  .00015201  00000-0  96998-3 0  9990,2 52095  53.2167 119.8201 0001249  93.8942 266.2193 15.08882274122773,6917.751,95.435,540.48,538.752,0.0
52095.0,STARLINK-3701,PAYLOAD,2024-05-30 21:42:09,15.08861377,0.0001786,53.2187,117.1417,118.2627,241.8546,0.0012431,0.00019563,0.0,0 STARLINK-3701,1 52095U 22029H   24151.90427635  .00019563  00000-0  12431-2 0  9992,2 52095  53.2187 117.1417 0001786 118.2627 241.8546 15.08861377122865,6917.815,95.436,540.916,538.445,0.0
52095.0,STARLINK-3701,PAYLOAD,2024-05-31 04:03:42,15.08863167,0.0001399,53.2171,115.9544,90.0932,270.0221,0.0012268,0.00019303,0.0,0 STARLINK-3701,1 52095U 22029H   24152.16923710  .00019303  00000-0  12268-2 0  9996,2 52095  53.2171 115.9544 0001399  90.0932 270.0221 15.08863167122909,6917.81,95.436,540.642,538.707,0.0
52095.0,STARLINK-3701,PAYLOAD,2024-05-31 07:14:27,15.08889964,0.0001415,53.2172,115.3599,93.8675,266.2479,0.00093834,0.00014698,0.0,0 STARLINK-3701,1 52095U 22029H   24152.30171184  .00014698  00000-0  93834-3 0  9993,2 52095  53.2172 115.3599 0001415  93.8675 266.2479 15.08889964122925,6917.728,95.434,540.572,538.614,0.0
52095.0,STARLINK-3701,PAYLOAD,2024-05-31 07:14:28,15.08871618,0.0001208,53.2172,115.36,75.8323,284.2804,0.001166,0.00018334,0.0,0 STARLINK-3701,1 52095U 22029H   24152.30171384  .00018334  00000-0  11660-2 0  9992,2 52095  53.2172 115.3600 0001208  75.8323 284.2804 15.08871618122927,6917.784,95.436,540.484,538.813,0.0
52095.0,STARLINK-3701,PAYLOAD,2024-06-01 03:54:29,15.08878028,0.000148,53.2192,111.4961,92.4252,267.691,0.00071656,0.00011146,0.0,0 STARLINK-3701,1 52095U 22029H   24153.16284111  .00011146  00000-0  71656-3 0  9996,2 52095  53.2192 111.4961 0001480  92.4252 267.6910 15.08878028123054,6917.764,95.435,540.653,538.605,0.0
52095.0,STARLINK-3701,PAYLOAD,2024-06-01 21:23:43,15.08871841,0.0001363,53.2188,108.2243,93.1828,266.932,0.00073496,0.00011438,0.0,0 STARLINK-3701,1 52095U 22029H   24153.89148105  .00011438  00000-0  73496-3 0  9996,2 52095  53.2188 108.2243 0001363  93.1828 266.9320 15.08871841123168,6917.783,95.436,540.591,538.705,0.0
52095.0,STARLINK-3701,PAYLOAD,2024-06-02 06:56:02,15.08877724,0.0001327,53.2191,106.4398,94.4353,265.6791,0.00070476,0.00010958,0.0,0 STARLINK-3701,1 52095U 22029H   24154.28891750  .00010958  00000-0  70476-3 0  9992,2 52095  53.2191 106.4398 0001327  94.4353 265.6791 15.08877724123221,6917.765,95.435,540.548,538.712,0.0
52095.0,STARLINK-3701,PAYLOAD,2024-06-02 13:17:35,15.08876345,0.0001351,53.2184,105.2502,93.2401,266.8746,0.00065822,0.00010213,0.0,0 STARLINK-3701,1 52095U 22029H   24154.55387943  .00010213  00000-0  65822-3 0  9999,2 52095  53.2184 105.2502 0001351  93.2401 266.8746 15.08876345123260,6917.769,95.435,540.569,538.7,0.0
52095.0,STARLINK-3701,PAYLOAD,2024-06-02 21:14:31,15.0886505,0.0001571,53.2182,103.7635,93.3657,266.7515,0.00084018,0.00013118,0.0,0 STARLINK-3701,1 52095U 22029H   24154.88508130  .00013118  00000-0  84018-3 0  9993,2 52095  53.2182 103.7635 0001571  93.3657 266.7515 15.08865050123316,6917.804,95.436,540.756,538.582,0.0
52095.0,STARLINK-3701,PAYLOAD,2024-06-03 06:46:49,15.08873154,0.0001339,53.2187,101.9804,88.6804,271.4342,0.00082489,0.00012876,0.0,0 STARLINK-3701,1 52095U 22029H   24155.28251770  .00012876  00000-0  82489-3 0  9993,2 52095  53.2187 101.9804 0001339  88.6804 271.4342 15.08873154123373,6917.779,95.435,540.57,538.718,0.0
52095.0,STARLINK-3701,PAYLOAD,2024-06-04 01:51:27,15.0886752,0.0001296,53.2181,98.4141,94.2901,265.8239,0.00086057,0.00013445,0.0,0 STARLINK-3701,1 52095U 22029H   24156.07740236  .00013445  00000-0  86057-3 0  9999,2 52095  53.2181  98.4141 0001296  94.2901 265.8239 15.08867520123499,6917.796,95.436,540.558,538.765,0.0
52095.0,STARLINK-3701,PAYLOAD,2024-06-04 12:59:09,15.08875964,0.0001207,53.2172,96.3278,77.5053,282.6075,0.00085059,0.00013288,0.0,0 STARLINK-3701,1 52095U 22029H   24156.54107706  .00013288  00000-0  85059-3 0  9996,2 52095  53.2172  96.3278 0001207  77.5053 282.6075 15.08875964123565,6917.77,95.435,540.47,538.8,0.0
52095.0,STARLINK-3701,PAYLOAD,2024-06-05 03:17:37,15.08873358,0.0001381,53.2174,93.653,80.6237,279.4911,0.0008415,0.00013142,0.0,0 STARLINK-3701,1 52095U 22029H   24157.13724000  .00013142  00000-0  84150-3 0  9994,2 52095  53.2174  93.6530 0001381  80.6237 279.4911 15.08873358123658,6917.778,95.435,540.599,538.688,0.0
52095.0,STARLINK-3701,PAYLOAD,2024-06-05 12:49:56,15.08872212,0.0001291,53.2179,91.8683,88.7,271.414,0.00076485,0.00011916,0.0,0 STARLINK-3701,1 52095U 22029H   24157.53468218  .00011916  00000-0  76485-3 0  9993,2 52095  53.2179  91.8683 0001291  88.7000 271.4140 15.08872212123710,6917.782,95.436,540.54,538.754,0.0
52095.0,STARLINK-3701,PAYLOAD,2024-06-05 19:11:29,15.0886087,0.0001325,53.2169,90.6792,91.8269,268.2875,0.00076437,0.00011905,0.0,0 STARLINK-3701,1 52095U 22029H   24157.79965038  .00011905  00000-0  76437-3 0  9998,2 52095  53.2169  90.6792 0001325  91.8269 268.2875 15.08860870123757,6917.817,95.436,540.598,538.765,0.0
52095.0,STARLINK-3701,PAYLOAD,2024-06-06 12:40:43,15.08874038,0.0001303,53.2179,87.4081,89.0878,271.0263,0.00077745,0.00012118,0.0,0 STARLINK-3701,1 52095U 22029H   24158.52828207  .00012118  00000-0  77745-3 0  9996,2 52095  53.2179  87.4081 0001303  89.0878 271.0263 15.08874038123860,6917.776,95.435,540.543,538.74,0.0
52095.0,STARLINK-3701,PAYLOAD,2024-06-06 19:02:15,15.08870933,0.0001509,53.2177,86.2189,88.2598,271.8567,0.00087919,0.00013744,0.0,0 STARLINK-3701,1 52095U 22029H   24158.79324061  .00013744  00000-0  87919-3 0  9994,2 52095  53.2177  86.2189 0001509  88.2598 271.8567 15.08870933123902,6917.786,95.436,540.695,538.607,0.0
52095.0,STARLINK-3701,PAYLOAD,2024-06-07 12:31:30,15.08881514,0.0001266,53.2173,82.9451,115.6059,244.5064,0.00076292,0.00011888,0.0,0 STARLINK-3701,1 52095U 22029H   24159.52187536  .00011888  00000-0  76292-3 0  9999,2 52095  53.2173  82.9451 0001266 115.6059 244.5064 15.08881514124019,6917.754,95.435,540.494,538.743,0.0
52095.0,STARLINK-3701,PAYLOAD,2024-06-07 22:03:49,15.08865604,0.0001636,53.2163,81.1634,95.4133,264.7046,0.00084356,0.00013172,0.0,0 STARLINK-3701,1 52095U 22029H   24159.91932465  .00013172  00000-0  84356-3 0  9999,2 52095  53.2163  81.1634 0001636  95.4133 264.7046 15.08865604124073,6917.802,95.436,540.799,538.535,0.0
52095.0,STARLINK-3701,PAYLOAD,2024-06-08 04:25:21,15.08875786,0.0001401,53.2181,79.9734,95.7866,264.3286,0.00080876,0.00012619,0.0,0 STARLINK-3701,1 52095U 22029H   24160.18427921  .00012619  00000-0  80876-3 0  9994,2 52095  53.2181  79.9734 0001401  95.7866 264.3286 15.08875786124114,6917.771,95.435,540.605,538.667,0.0
52095.0,STARLINK-3701,PAYLOAD,2024-06-08 21:54:37,15.08863979,0.0001153,53.2174,76.701,107.7282,252.3836,0.00080666,0.00012582,0.0,0 STARLINK-3701,1 52095U 22029H   24160.91292825  .00012582  00000-0  80666-3 0  9994,2 52095  53.2174  76.7010 0001153 107.7282 252.3836 15.08863979124229,6917.807,95.436,540.47,538.874,0.0
52095.0,STARLINK-3701,PAYLOAD,2024-06-09 01:05:23,15.08867918,0.0001152,53.2175,76.1074,97.6591,262.4532,0.00080883,0.00012618,0.0,0 STARLINK-3701,1 52095U 22029H   24161.04540641  .00012618  00000-0  80883-3 0  9992,2 52095  53.2175  76.1074 0001152  97.6591 262.4532 15.08867918124247,6917.795,95.436,540.457,538.863,0.0
52095.0,STARLINK-3701,PAYLOAD,2024-06-09 18:34:38,15.08860747,0.0001221,53.2182,72.8376,92.842,267.2712,0.00086418,0.000135,0.0,0 STARLINK-3701,1 52095U 22029H   24161.77405097  .00013500  00000-0  86418-3 0  9998,2 52095  53.2182  72.8376 0001221  92.8420 267.2712 15.08860747124356,6917.817,95.436,540.527,538.837,0.0
52095.0,STARLINK-3701,PAYLOAD,2024-06-09 21:45:24,15.08864255,0.0001334,53.2185,72.2432,94.183,265.9314,0.00083987,0.00013113,0.0,0 STARLINK-3701,1 52095U 22029H   24161.90653081  .00013113  00000-0  83987-3 0  9999,2 52095  53.2185  72.2432 0001334  94.1830 265.9314 15.08864255124374,6917.806,95.436,540.594,538.748,0.0
52095.0,STARLINK-3701,PAYLOAD,2024-06-10 10:28:28,15.08876266,0.0001179,53.217,69.8631,76.4836,283.6287,0.00079077,0.00012332,0.0,0 STARLINK-3701,1 52095U 22029H   24162.43644429  .00012332  00000-0  79077-3 0  9991,2 52095  53.2170  69.8631 0001179  76.4836 283.6287 15.08876266124457,6917.77,95.435,540.45,538.819,0.0
52095.0,STARLINK-3701,PAYLOAD,2024-06-10 21:36:11,15.08864804,0.0001565,53.2192,67.7852,102.2196,257.8971,0.00084591,0.00013209,0.0,0 STARLINK-3701,1 52095U 22029H   24162.90013262  .00013209  00000-0  84591-3 0  9999,2 52095  53.2192  67.7852 0001565 102.2196 257.8971 15.08864804124525,6917.805,95.436,540.752,538.587,0.0
52095.0,STARLINK-3701,PAYLOAD,2024-06-11 03:57:43,15.08872997,0.0001368,53.2193,66.5976,95.9026,264.2122,0.00083987,0.00013116,0.0,0 STARLINK-3701,1 52095U 22029H   24163.16508850  .00013116  00000-0  83987-3 0  9995,2 52095  53.2193  66.5976 0001368  95.9026 264.2122 15.08872997124567,6917.78,95.435,540.591,538.698,0.0
52095.0,STARLINK-3701,PAYLOAD,2024-06-11 10:19:16,15.08872926,0.000117,53.2173,65.4034,80.0887,280.0237,0.00081708,0.00012751,0.0,0 STARLINK-3701,1 52095U 22029H   24163.43004930  .00012751  00000-0  81708-3 0  9998,2 52095  53.2173  65.4034 0001170  80.0887 280.0237 15.08872926124609,6917.78,95.435,540.454,538.835,0.0
52095.0,STARLINK-3701,PAYLOAD,2024-06-12 02:13:06,15.0888391,0.0001347,53.2182,62.4326,95.5431,264.5715,0.0008876,0.00013883,0.0,0 STARLINK-3701,1 52095U 22029H   24164.09243984  .00013883  00000-0  88760-3 0  9997,2 52095  53.2182  62.4326 0001347  95.5431 264.5715 15.08883910124706,6917.746,95.435,540.543,538.679,0.0
